Table mondial_airport, columns = [*,name,iatacode,country,city,province,island,latitude,longitude,elevation,gmtoffset,meta_repcol]
Table mondial_borders, columns = [*,country1,country2,length,meta_repcol]
Table mondial_city, columns = [*,name,country,province,population,latitude,longitude,elevation,meta_repcol]
Table mondial_cityothername, columns = [*,city,country,province,othername,meta_repcol]
Table mondial_citypops, columns = [*,city,country,province,year,population,meta_repcol]
Table mondial_continent, columns = [*,name,area,meta_repcol]
Table mondial_country, columns = [*,name,code,capital,province,area,population,meta_repcol]
Table mondial_countrypops, columns = [*,country,year,population,meta_repcol]
Table mondial_desert, columns = [*,name,area,meta_repcol]
Table mondial_economy, columns = [*,country,gdp,agriculture,service,industry,inflation,unemployment,meta_repcol]
Table mondial_encompasses, columns = [*,country,continent,percentage,meta_repcol]
Table mondial_ethnicgroup, columns = [*,country,name,percentage,meta_repcol]
Table mondial_geo_desert, columns = [*,desert,country,province,meta_repcol]
Table mondial_geo_estuary, columns = [*,river,country,province,meta_repcol]
Table mondial_geo_island, columns = [*,island,country,province,meta_repcol]
Table mondial_geo_lake, columns = [*,lake,country,province,meta_repcol]
Table mondial_geo_mountain, columns = [*,mountain,country,province,meta_repcol]
Table mondial_geo_river, columns = [*,river,country,province,meta_repcol]
Table mondial_geo_sea, columns = [*,sea,country,province,meta_repcol]
Table mondial_geo_source, columns = [*,river,country,province,meta_repcol]
Table mondial_island, columns = [*,name,islands,area,elevation,type,meta_repcol]
Table mondial_islandin, columns = [*,island,sea,lake,river,meta_repcol]
Table mondial_ismember, columns = [*,country,organization,type,meta_repcol]
Table mondial_lake, columns = [*,name,river,area,elevation,depth,height,type,meta_repcol]
Table mondial_language, columns = [*,country,name,percentage,meta_repcol]
Table mondial_located, columns = [*,city,province,country,river,lake,sea,meta_repcol]
Table mondial_locatedon, columns = [*,city,province,country,island,meta_repcol]
Table mondial_mergeswith, columns = [*,sea1,sea2,meta_repcol]
Table mondial_mountain, columns = [*,name,mountains,elevation,type,meta_repcol]
Table mondial_mountainonisland, columns = [*,mountain,island,meta_repcol]
Table mondial_organization, columns = [*,abbreviation,name,city,country,province,established,meta_repcol]
Table mondial_politics, columns = [*,country,independence,wasdependent,dependent,government,meta_repcol]
Table mondial_population, columns = [*,country,population_growth,infant_mortality,meta_repcol]
Table mondial_province, columns = [*,name,country,population,area,capital,capprov,meta_repcol]
Table mondial_provinceothername, columns = [*,province,country,othername,meta_repcol]
Table mondial_provpops, columns = [*,province,country,year,population,meta_repcol]
Table mondial_religion, columns = [*,country,name,percentage,meta_repcol]
Table mondial_river, columns = [*,name,river,lake,sea,length,area,mountains,sourceelevation,estuaryelevation,meta_repcol]
Table mondial_riverthrough, columns = [*,river,lake,meta_repcol]
Table mondial_sea, columns = [*,name,area,depth,meta_repcol]